NORAD_CAT_ID,OBJECT_NAME,OBJECT_TYPE,EPOCH,MEAN_MOTION,ECCENTRICITY,INCLINATION,RA_OF_ASC_NODE,ARG_OF_PERICENTER,MEAN_ANOMALY,BSTAR,MEAN_MOTION_DOT,MEAN_MOTION_DDOT,TLE_LINE0,TLE_LINE1,TLE_LINE2,SEMIMAJOR_AXIS,PERIOD,APOGEE,PERIGEE,DECAYED
56804.0,STARLINK-6069,PAYLOAD,2024-01-31 14:31:44,14.98332558,0.0002848,70.0,101.0022,270.946,89.1373,8.3781e-05,9.07e-06,0.0,0 STARLINK-6069,1 56804U 23078AP  24031.60537378  .00000907  00000-0  83781-4 0  9999,2 56804  70.0000 101.0022 0002848 270.9460  89.1373 14.98332558 38794,6950.185,96.107,574.029,570.071,0.0
56804.0,STARLINK-6069,PAYLOAD,2024-02-01 11:21:29,14.98318945,0.0002971,69.9996,98.8124,275.4387,84.6433,0.00013198,1.482e-05,0.0,0 STARLINK-6069,1 56804U 23078AP  24032.47326246  .00001482  00000-0  13198-3 0  9998,2 56804  69.9996  98.8124 0002971 275.4387  84.6433 14.98318945 38517,6950.227,96.108,574.157,570.027,0.0
56804.0,STARLINK-6069,PAYLOAD,2024-02-01 14:33:46,14.98313316,0.0002877,69.9999,98.4761,273.4746,86.6084,0.00026267,3.041e-05,0.0,0 STARLINK-6069,1 56804U 23078AP  24032.60678349  .00003041  00000-0  26267-3 0  9991,2 56804  69.9999  98.4761 0002877 273.4746  86.6084 14.98313316 38943,6950.244,96.108,574.109,570.11,0.0
56804.0,STARLINK-6069,PAYLOAD,2024-02-02 11:23:30,14.98332243,0.0002891,69.9996,96.288,275.28,84.803,-2.2434e-05,-3.61e-06,0.0,0 STARLINK-6069,1 56804U 23078AP  24033.47465834 -.00000361  00000-0 -22434-4 0  9997,2 56804  69.9996  96.2880 0002891 275.2800  84.8030 14.98332243 38665,6950.186,96.107,574.06,570.042,0.0
56804.0,STARLINK-6069,PAYLOAD,2024-02-02 14:35:46,14.98333967,0.0002843,69.9998,95.9518,274.5624,85.521,-5.1985e-06,-1.55e-06,0.0,0 STARLINK-6069,1 56804U 23078AP  24033.60817648 -.00000155  00000-0 -51985-5 0  9991,2 56804  69.9998  95.9518 0002843 274.5624  85.5210 14.98333967 39094,6950.181,96.107,574.022,570.07,0.0
56804.0,STARLINK-6069,PAYLOAD,2024-02-03 11:25:31,14.98329128,0.0002756,69.9997,93.7644,263.381,96.7035,1.6989e-05,1.1e-06,0.0,0 STARLINK-6069,1 56804U 23078AP  24034.47605734  .00000110  00000-0  16989-4 0  9991,2 56804  69.9997  93.7644 0002756 263.3810  96.7035 14.98329128 38817,6950.196,96.107,573.976,570.145,0.0
56804.0,STARLINK-6069,PAYLOAD,2024-02-03 13:01:39,14.98329615,0.0002749,69.9997,93.5961,263.4857,96.5989,2.1786e-05,1.67e-06,0.0,0 STARLINK-6069,1 56804U 23078AP  24034.54281690  .00000167  00000-0  21786-4 0  9993,2 56804  69.9997  93.5961 0002749 263.4857  96.5989 14.98329615 39235,6950.194,96.107,573.97,570.148,0.0
56804.0,STARLINK-6069,PAYLOAD,2024-02-03 14:37:47,14.98329977,0.0002755,69.9997,93.4274,265.8741,94.2103,2.6096e-05,2.18e-06,0.0,0 STARLINK-6069,1 56804U 23078AP  24034.60957667  .00000218  00000-0  26096-4 0  9990,2 56804  69.9997  93.4274 0002755 265.8741  94.2103 14.98329977 39241,6950.193,96.107,573.973,570.143,0.0
56804.0,STARLINK-6069,PAYLOAD,2024-02-04 11:27:32,14.98331155,0.0002735,69.9996,91.2391,265.4752,94.6095,3.5807e-07,-8.9e-07,0.0,0 STARLINK-6069,1 56804U 23078AP  24035.47745570 -.00000089  00000-0  35807-6 0  9993,2 56804  69.9996  91.2391 0002735 265.4752  94.6095 14.98331155 38965,6950.189,96.107,573.955,570.153,0.0
56804.0,STARLINK-6069,PAYLOAD,2024-02-04 13:03:40,14.98331838,0.0002733,69.9996,91.0708,265.662,94.4227,7.7625e-06,0.0,0.0,0 STARLINK-6069,1 56804U 23078AP  24035.54421498  .00000000  00000-0  77625-5 0  9996,2 56804  69.9996  91.0708 0002733 265.6620  94.4227 14.98331838 39389,6950.187,96.107,573.952,570.153,0.0
56804.0,STARLINK-6069,PAYLOAD,2024-02-05 11:29:33,14.98328668,0.0002749,69.9997,88.7141,266.3323,93.7521,-1.4399e-05,-2.65e-06,0.0,0 STARLINK-6069,1 56804U 23078AP  24036.47885730 -.00000265  00000-0 -14399-4 0  9995,2 56804  69.9997  88.7141 0002749 266.3323  93.7521 14.98328668 39116,6950.197,96.107,573.973,570.151,0.0
56804.0,STARLINK-6069,PAYLOAD,2024-02-05 13:05:41,14.98328947,0.0002747,69.9997,88.5458,266.4828,93.6017,-1.104e-05,-2.25e-06,0.0,0 STARLINK-6069,1 56804U 23078AP  24036.54561707 -.00000225  00000-0 -11040-4 0  9994,2 56804  69.9997  88.5458 0002747 266.4828  93.6017 14.98328947 39539,6950.196,96.107,573.97,570.152,0.0
56804.0,STARLINK-6069,PAYLOAD,2024-02-06 11:31:33,14.98332541,0.0002806,69.9995,86.1888,267.0432,93.0406,9.0112e-06,1.5e-07,0.0,0 STARLINK-6069,1 56804U 23078AP  24037.48025324  .00000015  00000-0  90112-5 0  9991,2 56804  69.9995  86.1888 0002806 267.0432  93.0406 14.98332541 39263,6950.185,96.107,574.0,570.1,0.0
56804.0,STARLINK-6069,PAYLOAD,2024-02-06 13:07:41,14.98333237,0.00028,69.9995,86.0205,267.0104,93.0735,1.6894e-05,1.09e-06,0.0,0 STARLINK-6069,1 56804U 23078AP  24037.54701247  .00000109  00000-0  16894-4 0  9991,2 56804  69.9995  86.0205 0002800 267.0104  93.0735 14.98333237 39689,6950.183,96.107,573.994,570.102,0.0
56804.0,STARLINK-6069,PAYLOAD,2024-02-07 11:33:34,14.98332079,0.0002867,69.9993,83.6644,268.3261,91.7569,2.2795e-05,1.79e-06,0.0,0 STARLINK-6069,1 56804U 23078AP  24038.48165233  .00000179  00000-0  22795-4 0  9998,2 56804  69.9993  83.6644 0002867 268.3261  91.7569 14.98332079 39412,6950.186,96.107,574.044,570.059,0.0
56804.0,STARLINK-6069,PAYLOAD,2024-02-07 13:09:42,14.98332979,0.0002863,69.9993,83.496,268.3491,91.734,3.2227e-05,2.92e-06,0.0,0 STARLINK-6069,1 56804U 23078AP  24038.54841139  .00000292  00000-0  32227-4 0  9998,2 56804  69.9993  83.4960 0002863 268.3491  91.7340 14.98332979 39834,6950.184,96.107,574.039,570.059,0.0
56804.0,STARLINK-6069,PAYLOAD,2024-02-07 19:34:15,14.98319539,0.0002755,69.9993,82.8225,267.5696,92.5147,0.00010539,1.164e-05,0.0,0 STARLINK-6069,1 56804U 23078AP  24038.81545887  .00001164  00000-0  10539-3 0  9999,2 56804  69.9993  82.8225 0002755 267.5696  92.5147 14.98319539 39469,6950.225,96.108,574.005,570.175,0.0
56804.0,STARLINK-6069,PAYLOAD,2024-02-08 13:11:44,14.98325133,0.0002592,69.9997,80.9711,263.8812,96.2052,-4.6784e-05,-6.51e-06,0.0,0 STARLINK-6069,1 56804U 23078AP  24039.54981991 -.00000651  00000-0 -46784-4 0  9994,2 56804  69.9997  80.9711 0002592 263.8812  96.2052 14.98325133 39980,6950.208,96.107,573.874,570.271,0.0
56804.0,STARLINK-6069,PAYLOAD,2024-02-09 03:36:56,14.98329263,0.0002882,69.9988,79.4552,266.9862,93.0967,-6.5912e-07,-1.01e-06,0.0,0 STARLINK-6069,1 56804U 23078AP  24040.15065567 -.00000101  00000-0 -65912-6 0  9991,2 56804  69.9988  79.4552 0002882 266.9862  93.0967 14.98329263 39660,6950.195,96.107,574.063,570.057,0.0
56804.0,STARLINK-6069,PAYLOAD,2024-02-09 13:13:44,14.98332823,0.0002582,69.9997,78.4471,259.1364,100.9505,2.9855e-05,2.63e-06,0.0,0 STARLINK-6069,1 56804U 23078AP  24040.55121237  .00000263  00000-0  29855-4 0  9993,2 56804  69.9997  78.4471 0002582 259.1364 100.9505 14.98332823 40133,6950.184,96.107,573.844,570.255,0.0
56804.0,STARLINK-6069,PAYLOAD,2024-02-10 03:38:57,14.98329311,0.0002482,70.0,76.9322,257.3387,102.7495,4.9824e-05,5.02e-06,0.0,0 STARLINK-6069,1 56804U 23078AP  24041.15205360  .00000502  00000-0  49824-4 0  9994,2 56804  70.0000  76.9322 0002482 257.3387 102.7495 14.98329311 39812,6950.195,96.107,573.785,570.335,0.0
56804.0,STARLINK-6069,PAYLOAD,2024-02-10 11:39:37,14.98326103,0.0002484,69.9999,76.0904,251.4876,108.6013,2.7043e-05,2.3e-06,0.0,0 STARLINK-6069,1 56804U 23078AP  24041.48585637  .00000230  00000-0  27043-4 0  9995,2 56804  69.9999  76.0904 0002484 251.4876 108.6013 14.98326103 40272,6950.205,96.107,573.796,570.344,0.0
56804.0,STARLINK-6069,PAYLOAD,2024-02-11 03:40:58,14.9832918,0.0002523,69.9996,74.4063,256.442,103.6459,-4.7991e-05,-6.65e-06,0.0,0 STARLINK-6069,1 56804U 23078AP  24042.15345711 -.00000665  00000-0 -47991-4 0  9995,2 56804  69.9996  74.4063 0002523 256.4420 103.6459 14.98329180 39962,6950.195,96.107,573.814,570.307,0.0
56804.0,STARLINK-6069,PAYLOAD,2024-02-11 11:41:39,14.98327735,0.0002554,69.9998,73.5647,257.2492,102.8382,-6.048e-05,-8.14e-06,0.0,0 STARLINK-6069,1 56804U 23078AP  24042.48725864 -.00000814  00000-0 -60480-4 0  9996,2 56804  69.9998  73.5647 0002554 257.2492 102.8382 14.98327735 40427,6950.2,96.107,573.84,570.29,0.0
56804.0,STARLINK-6069,PAYLOAD,2024-02-12 03:42:59,14.98334119,0.0002697,69.9994,71.8806,262.4358,97.6494,5.3749e-05,5.48e-06,0.0,0 STARLINK-6069,1 56804U 23078AP  24043.15485043  .00000548  00000-0  53749-4 0  9995,2 56804  69.9994  71.8806 0002697 262.4358  97.6494 14.98334119 40113,6950.18,96.107,573.92,570.171,0.0
56804.0,STARLINK-6069,PAYLOAD,2024-02-12 11:43:39,14.98337343,0.0002759,69.9993,71.0379,267.3775,92.7068,8.0403e-05,8.67e-06,0.0,0 STARLINK-6069,1 56804U 23078AP  24043.48864682  .00000867  00000-0  80403-4 0  9992,2 56804  69.9993  71.0379 0002759 267.3775  92.7068 14.98337343 40570,6950.17,96.107,573.953,570.118,0.0
56804.0,STARLINK-6069,PAYLOAD,2024-02-13 03:45:00,14.98324982,0.0002649,69.9998,69.3547,268.4076,91.678,-9.1458e-06,-2.02e-06,0.0,0 STARLINK-6069,1 56804U 23078AP  24044.15625695 -.00000202  00000-0 -91458-5 0  9994,2 56804  69.9998  69.3547 0002649 268.4076  91.6780 14.98324982 40266,6950.208,96.107,573.915,570.232,0.0
56804.0,STARLINK-6069,PAYLOAD,2024-02-13 11:45:40,14.98324952,0.0002616,70.0,68.5147,262.0006,98.0856,-7.7616e-06,-1.86e-06,0.0,0 STARLINK-6069,1 56804U 23078AP  24044.49005733 -.00000186  00000-0 -77616-5 0  9997,2 56804  70.0000  68.5147 0002616 262.0006  98.0856 14.98324952 40720,6950.209,96.107,573.892,570.255,0.0
56804.0,STARLINK-6069,PAYLOAD,2024-02-13 18:10:12,14.98331376,0.0002651,69.9998,67.8402,269.605,90.4806,-6.4592e-06,-1.7e-06,0.0,0 STARLINK-6069,1 56804U 23078AP  24044.75709380 -.00000170  00000-0 -64592-5 0  9997,2 56804  69.9998  67.8402 0002651 269.6050  90.4806 14.98331376 40763,6950.189,96.107,573.896,570.211,0.0
56804.0,STARLINK-6069,PAYLOAD,2024-02-14 03:47:00,14.98342823,0.0003129,69.9984,66.829,270.3008,89.7793,-4.5993e-06,-1.48e-06,0.0,0 STARLINK-6069,1 56804U 23078AP  24045.15764394 -.00000148  00000-0 -45993-5 0  9997,2 56804  69.9984  66.8290 0003129 270.3008  89.7793 14.98342823 40412,6950.153,96.106,574.193,569.844,0.0
